[{"OBJECT_NAME":"STARLINK-36236","OBJECT_ID":"2025-298D","EPOCH":"2026-03-09T22:52:09.740064","MEAN_MOTION":14.98333747,"ECCENTRICITY":0.00038974,"INCLINATION":70.0013,"RA_OF_ASC_NODE":13.9198,"ARG_OF_PERICENTER":255.8336,"MEAN_ANOMALY":104.2391,"EPHEMERIS_TYPE":0,"CLASSIFICATION_TYPE":"U","NORAD_CAT_ID":67078,"ELEMENT_SET_NO":999,"REV_AT_EPOCH":1325,"BSTAR":0.00052810907,"MEAN_MOTION_DOT":6.215e-5,"MEAN_MOTION_DDOT":0},{"OBJECT_NAME":"RAPIDEYE 5","OBJECT_ID":"2008-040B","EPOCH":"2026-03-09T15:17:22.403904","MEAN_MOTION":15.02179038,"ECCENTRICITY":0.0014834,"INCLINATION":97.3944,"RA_OF_ASC_NODE":91.3825,"ARG_OF_PERICENTER":86.9831,"MEAN_ANOMALY":273.3091,"EPHEMERIS_TYPE":0,"CLASSIFICATION_TYPE":"U","NORAD_CAT_ID":33313,"ELEMENT_SET_NO":999,"REV_AT_EPOCH":95055,"BSTAR":0.00014028,"MEAN_MOTION_DOT":1.794e-5,"MEAN_MOTION_DDOT":0}]
